#dP2021  6 25  0  0  0.00000000      96 __u+U ITR00 EXT  IAC
## 2163 432000.00000000   900.00000000 59390 0.0000000000000
+  116   C06C07C08C09C10C11C12C13C14C16C19C20C21C22C23C24C25
+        C26C27C28C29C30C32C33C34C35C36C37C38C39C40C41C42C43
+        C44C45C46E01E02E03E04E05E07E08E09E11E12E13E14E15E18
+        E19E21E24E25E26E27E30E31E33E36G01G02G03G04G05G06G07
+        G08G09G10G12G13G14G15G16G17G18G19G20G21G22G23G24G25
+        G26G27G28G29G30G31G32J01J02J03R01R02R03R04R05R07R08
+        R09R11R12R13R14R15R16R17R18R19R20R21R22R24  0  0  0
++         9 12  9  9 10 10  9  9  9  9  8 10  9  9  8  8  8
++         9  9 10  9  9  9  9  9  9  8 10 11 11 10  9  9 10
++         8  9  8 10  8  8  8  8  9  9  9  9 10  9  7  8  8
++         9  8  8  8  8  8  8  8  7  9  8  8  8  8  9  7  8
++         8  7  9  8  8  8  9  9  7  7  8 10  9  9  8  8  8
++         7  7  8  8  9  8  9 11 11  9  9  8  8  9  9  9  9
++        10  8  9  9  9  8  8  7  9  7  9  9 10  9  0  0  0
%c M  cc GPS ccc cccc cccc cccc cccc ccccc ccccc ccccc ccccc
%c cc cc ccc ccc cccc cccc cccc cccc ccccc ccccc ccccc ccccc
%f  0.0000000  0.000000000  0.00000000000  0.000000000000000
%f  0.0000000  0.000000000  0.00000000000  0.000000000000000
%i    0    0    0    0      0      0      0      0         0
%i    0    0    0    0      0      0      0      0         0
/* IAC                                ULTRA-RAPID PREDICTION
/* S/V CLOCKS ARE ALIGNED TO GNSS TIME                      
/* G:C1WC2W R:C1PC2P E:C1XC5X C:C2IC6I J:C1CC2S             
/* PCV:IGS14_2148 OL/AL:FES2004  NONE     YN ORB:CoN CLK:CoN
*  2021 06 25 23 15  0.00000000
PC06 -13007.667456  37865.698683 -11918.191879    547.559565
PC07 -10550.090199  24742.340153  32777.920255     34.439679
PC08 -24311.787150  26034.115692 -22770.135286   -897.462100
PC09  -4523.974755  41604.247621   2817.666555    420.711558
PC10   4341.551070  30246.066854  29449.816252    -25.646716
PC11  16004.829731  -9402.531847 -20769.225235    421.269984
PC12  12605.930371  11201.977270 -22211.807685    831.866731
PC13 -12207.253673  27198.265415 -29831.737791    313.587881
PC14  20669.366634    562.200056  18796.288587    865.197820
PC16 -11260.151108  39160.940754 -10259.783851   -922.509111
PC19 -14154.634154   8344.131582 -22524.620846    886.045305
PC20 -23207.369961  -7812.354414 -13334.137461   -864.210821
PC21  18814.064263  20169.988888  -4312.813623   -935.079520
PC22   3391.894094  20221.343744 -18939.556823   -949.062299
PC23   7243.389406 -17757.212219 -20262.685068   -948.076550
PC24  25766.484955   -646.904183  10671.252490   -909.759721
PC25  22878.508309 -14089.970084  -7503.617927   -895.386827
PC26  14064.300182  11105.717211  21379.149405    887.525996
PC27  -8115.962708 -20160.441826  17490.080557    554.269201
PC28   4478.713545 -27480.903638   1815.913741    -57.978783
PC29 -13715.599165  19204.917237  14880.247654    411.079037
PC30 -15902.698950  -1084.557425  22894.539218    471.941898
PC32 -18908.048220 -20043.694045   4382.310639   -924.276570
PC33  14232.143454  -8361.867657  22512.206649   -938.412616
PC34  16076.470016    195.632882 -22824.412778   -642.134834
PC35  -3741.153145  27597.821409  -1473.526644   -216.171625
PC36 -23405.375892  13397.485558   7196.186049   -729.047493
PC37 -12948.833264 -11906.719035 -21644.092938   -870.831495
PC38 -21580.635283  27936.733077 -23149.644782    157.642248
PC39  -7870.233575  40272.157114  -9314.943420     32.002610
PC40  -1057.051690  25601.613843  33549.540423    174.536604
PC41  -3054.958817 -20116.011596  19149.814963   -951.415414
PC42  23394.576089   8403.846064  12748.033867   -915.078039
PC43  14086.190579 -18679.174540 -15240.678492   -793.123893
PC44   8817.696614  20005.755199 -17337.525101    258.055730
PC45  -7094.428138  17671.589840  20413.911869    476.980041
PC46 -26101.311513   1540.481325  -9784.827351    207.476927
PE01   6456.223456  16937.229543  23405.203371  -1137.012708
PE02  -6620.119781 -16931.180390 -23360.341401    228.639729
PE03  -7464.357607 -28226.626023   4823.218079   -445.938571
PE04  17771.904146  19695.901564  13145.591529   -800.193456
PE05   7386.152055 -20309.940795  20232.647668   -270.061656
PE07 -17749.349912    660.805496 -23665.901440   -554.261014
PE08 -17875.516414 -19364.328660 -13456.434970   5980.174184
PE09  17578.798310   -867.737788  23810.788097   5621.310860
PE11  22111.555223 -10668.529737 -16561.848005   5803.122077
PE12  13328.464253   9238.327983 -24769.623262   5141.919611
PE13 -21970.837191  10368.634126  16902.988498    418.221822
PE14  15612.100177 -15512.867878 -21218.286378  -1478.835742
PE15 -13305.397289  -9130.282974  24813.168287    806.827803
PE18  -4529.722036  25005.878118   8889.546003  -1620.111512
PE19   5867.511567  28165.477808  -6951.456953    311.412987
PE21 -14852.448248  12861.920333  22140.632113   -672.744641
PE24  28697.980734   -487.626952  -7207.249297   -974.533014
PE25  15066.000937 -12763.570418 -22043.663534   -538.061016
PE26 -17316.373759  23942.368685  -1789.189459   1650.908686
PE27 -28473.194287   1186.559278   8016.383483    -62.209627
PE30 -24575.436104 -11755.081378 -11593.843014   2834.013245
PE31  25251.155264  11114.409168  10738.438960   -482.596883
PE33  -3166.248090  23203.400355 -18101.943900   -468.608663
PE36  17690.353427 -23719.375191    932.388102   -225.953439
PG01 -10866.191303  20477.765391 -12907.687664    647.192330
PG02  21306.002859 -12865.255381  -8699.721112   -615.120780
PG03  -3194.866974  14787.647478 -21923.239122   -202.388558
PG04  -1753.912765  25191.522818  -8125.430918   -200.896962
PG05  17086.547612  -8381.736853  18446.039857    -46.042023
PG06  19839.361991  -1722.476748 -17550.201910     31.593224
PG07   3457.200886  16514.490321  20760.836589    187.450789
PG08  -7756.917423  18965.780549  16714.990615    -26.492151
PG09   7235.973801  25409.588621   2552.322216   -352.851049
PG10 -23285.209502 -11931.756514   5466.830772   -149.661149
PG12   5331.477203 -14086.308283 -22131.513120    -60.040953
PG13  13131.186296 -11221.786587  20003.378229    149.598386
PG14  22726.539207  12817.607491   5074.053455     61.572814
PG15   5973.372874 -20069.891673  15766.094630   -139.853295
PG16 -21584.217278   1800.648552  15430.916659   -347.136840
PG17  12560.254320  17380.975583 -15240.702679    464.192085
PG18  -5636.403043 -14525.337925  21487.384758    344.830716
PG19  14697.268872   8448.603300 -20765.815751     18.183786
PG20  20507.736845  -7288.433280  14967.768559    520.803019
PG21 -16191.795258  20193.123497  -3893.521884    127.389365
PG22 -12488.765778  12079.805612 -19853.894701   -579.212039
PG23 -15243.989415 -15738.475322  15029.709215     92.561550
PG24  13352.227262 -21449.275677  -7750.556355    148.876261
PG25  -8033.379752 -16923.127843 -19193.347646    162.480481
PG26 -25833.401200  -3133.154028   5932.790164    102.977398
PG27 -13124.693802   8226.502216  21342.453785   -153.081320
PG28  24180.589701  10693.196564   -372.405046    548.451745
PG29  -4268.522037 -26123.713302   1732.235221   -370.167002
PG30  15024.819204   7374.597681  20732.096176   -443.436012
PG31 -21476.019804   3371.780060 -15653.236200   -125.137586
PG32 -14912.341410 -14167.735108 -16782.212446     17.035692
PJ01 -21703.880201  19360.159704 -25956.934332   -402.866621
PJ02 -30163.953020  22716.611340  23609.692414     -0.429058
PJ03 -28699.959905  27783.177103  18376.281398     -9.151903
PR01   4382.425132 -11551.753241  22319.077629     81.413690
PR02 -11133.873831 -21127.907580   9088.188434    483.722814
PR03 -17906.379708 -16157.835308  -8334.856441     38.343841
PR04 -14335.764968  -2301.111275 -20943.236742     92.938153
PR05  -2911.165596  12833.881324 -21832.600422     74.218577
PR07  17948.052197  15659.662689   9110.981303    -42.227208
PR08  14391.393887   2082.969392  21010.832559    -59.686376
PR09   4630.232120  10597.471833  22759.879360     -0.255280
PR11  24970.139131  -4966.560671  -1690.997125    -15.422561
PR12  14636.684062 -10847.024515 -17817.385919    240.186841
PR13  -3708.962581 -10500.744295 -22959.945127    -56.832735
PR14 -20702.494712  -3800.174206 -14380.288861     65.756724
PR15 -24928.713427   4892.115792   2298.120202    103.031040
PR16 -13465.386695  11490.820336  18403.344087    -16.939828
PR17  -7924.888667  -8146.044166  22832.418769    435.764200
PR18 -13298.468798   9229.726267  19701.394784     81.292371
PR19 -12531.195066  21124.834626   6885.415566   -149.175586
PR20  -3268.034606  21752.336343 -12880.657779    -51.481036
PR21   8395.449088   6962.419315 -23068.084648   -219.260303
PR22  13477.226049 -10288.157099 -19117.452528   -119.544372
PR24   2232.815173 -21607.992702  13367.834638     47.968765
EOF
